GORIZONT 14 [-]         
1 17969U 87040A   17345.12074516 -.00000123  00000-0  00000-0 0  9994
2 17969  15.3404 346.0288 0025356 137.6423  29.7342  0.97658582 89485
